STARLINK-1335           
1 45581U 20025BC  25196.00886526 -.00000913  00000+0 -42373-4 0  9997
2 45581  53.0564  63.6081 0001987 100.9619 259.1594 15.06400310289085
STARLINK-1337           
1 45582U 20025BD  25195.96462896  .00000095  00000+0  25266-4 0  9993
2 45582  53.0553  63.8065 0001383  93.8212 266.2935 15.06405965289075
STARLINK-1347           
1 45586U 20025BH  25196.03210892  .00020199  00000+0  98026-3 0  9993
2 45586  53.0537  62.1951 0001751  91.2839 268.8356 15.18483175289092
STARLINK-1349           
1 45587U 20025BJ  25196.25002315  .00122636  00000+0  92079-3 0  9998
2 45587  53.0510  44.2790 0006274 206.8073 346.7961 15.71715516289381
STARLINK-1360           
1 45588U 20025BK  25195.75349865  .00028966  00000+0  35843-3 0  9994
2 45588  53.0517  15.0390 0003109 119.6460 240.4862 15.59881365290346
STARLINK-1364           
1 45589U 20025BL  25195.90196823 -.00000811  00000+0 -35569-4 0  9993
2 45589  53.0554  64.0879 0001378  87.6148 272.4999 15.06400049289068
STARLINK-1365           
1 45590U 20025BM  25196.11666918  .00000815  00000+0  73585-4 0  9998
2 45590  53.0550  93.1262 0001372  88.6027 271.5119 15.06400046288684
STARLINK-1443           
1 45660U 20035D   25196.56635866  .00000988  00000+0  85252-4 0  9999
2 45660  53.0560  51.1065 0001160  94.8399 265.2722 15.06384227282589
STARLINK-1446           
1 45663U 20035G   25195.96921302  .00032330  00000+0  13156-2 0  9996
2 45663  53.0264  33.7315 0002910 215.2272 144.8532 15.24249896282774
STARLINK-1448           
1 45665U 20035J   25196.30465944  .00000681  00000+0  64638-4 0  9999
2 45665  53.0546  52.2794 0001744  91.8804 268.2384 15.06394015282544
STARLINK-1451           
1 45668U 20035M   25196.30839426 -.00002878  00000+0 -17444-3 0  9996
2 45668  53.0557  52.5808 0001233  84.3956 275.7174 15.06391798282541
STARLINK-1452           
1 45669U 20035N   25195.75401103  .00023359  00000+0  11703-2 0  9998
2 45669  53.0519  47.3120 0005359  58.6837 301.4681 15.17274191282970
STARLINK-1453           
1 45670U 20035P   25196.51752549 -.00000011  00000+0  18187-4 0  9994
2 45670  53.0564  21.3249 0001449  83.1844 276.9309 15.06395820282999
STARLINK-1454           
1 45671U 20035Q   25195.60064398  .00001276  00000+0  10455-3 0  9994
2 45671  53.0557  55.4389 0001315  98.5516 261.5622 15.06387355282838
STARLINK-1456           
1 45673U 20035S   25195.74807678  .00000701  00000+0  65938-4 0  9996
2 45673  53.0560  54.7777 0001463  93.7149 266.4008 15.06406899282871
STARLINK-1457           
1 45674U 20035T   25195.88813843 -.00003588  00000+0 -22195-3 0  9998
2 45674  53.0556  54.1526 0001264  87.1449 272.9685 15.06419732282493
STARLINK-1458           
1 45675U 20035U   25196.00977963  .00001060  00000+0  90040-4 0  9994
2 45675  53.0553  53.6038 0001343  86.9597 273.1546 15.06390295282493
STARLINK-1460           
1 45676U 20035V   25196.31203062 -.00000466  00000+0 -12395-4 0  9999
2 45676  53.0558  52.2463 0001387  91.1590 268.9558 15.06397620282545
STARLINK-1392           
1 45677U 20035W   25196.32312992  .00023621  00000+0  16038-2 0  9996
2 45677  53.0565  52.1972 0002127  76.3008 283.8217 15.06295819282545
STARLINK-1394           
1 45679U 20035Y   25195.72320119 -.00000165  00000+0  78440-5 0  9998
2 45679  53.0542  44.8895 0001476  92.6080 267.5078 15.06399051283000
STARLINK-1402           
1 45685U 20035AE  25196.55014257  .00000357  00000+0  42848-4 0  9994
2 45685  53.0559  35.5980 0001353  90.8701 269.2443 15.06390243282807
STARLINK-1404           
1 45686U 20035AF  25196.54516658  .00000578  00000+0  57681-4 0  9992
2 45686  53.0560  41.2032 0001413  96.3136 263.8014 15.06389016282723
STARLINK-1413           
1 45689U 20035AJ  25196.56360596  .00000638  00000+0  61701-4 0  9990
2 45689  53.0555  41.1157 0001344  90.8189 269.2954 15.06397396282720
STARLINK-1417           
1 45693U 20035AN  25196.55991420  .00000888  00000+0  78541-4 0  9997
2 45693  53.0549  41.1369 0001427  93.6257 266.4895 15.06387594282724
STARLINK-1420           
1 45695U 20035AQ  25196.49446326 -.00000162  00000+0  79897-5 0  9994
2 45695  53.0571  21.4190 0001500  89.8788 270.2373 15.06392577282992
STARLINK-1422           
1 45696U 20035AR  25196.57097226  .00001377  00000+0  11134-3 0  9991
2 45696  53.0560  41.0881 0001334  83.8827 276.2314 15.06388319282720
STARLINK-1351           
1 45697U 20035AS  25195.75086281 -.00000266  00000+0  10709-5 0  9996
2 45697  53.0562  24.7652 0001503  92.2689 267.8472 15.06385514283293
STARLINK-1398           
1 45699U 20035AU  25195.76160944  .00056408  00000+0  16912-2 0  9995
2 45699  53.0588  11.0636 0003937 211.9945 148.0817 15.33958372283484
STARLINK-1400           
1 45700U 20035AV  25196.52121099  .00000234  00000+0  34637-4 0  9993
2 45700  53.0567  21.3094 0001394  88.5854 271.5294 15.06391865282992
STARLINK-1403           
1 45701U 20035AW  25196.21896735  .00000668  00000+0  63724-4 0  9996
2 45701  53.0562  22.6638 0001305  91.7604 268.3535 15.06391559282966
STARLINK-1407           
1 45703U 20035AY  25195.75931772  .00039576  00000+0  14497-2 0  9998
2 45703  53.0463   3.9819 0006586  60.3673 299.7980 15.27639644283589
STARLINK-1411           
1 45706U 20035BB  25196.58334491  .00021838  00000+0  13441-2 0  9998
2 45706  53.0548  20.8689 0001602 114.8870  26.0069 15.09959668283015
STARLINK-1423           
1 45710U 20035BF  25196.51013164  .00004098  00000+0  29373-3 0  9998
2 45710  53.0567  21.3579 0001087  95.1949 264.9164 15.06416145282990
STARLINK-1433           
1 45711U 20035BG  25196.22633324  .00000644  00000+0  62101-4 0  9993
2 45711  53.0559  22.6337 0001133  88.9800 271.1319 15.06393935282955
STARLINK-1434           
1 45712U 20035BH  25196.52377676  .00022769  00000+0  14747-2 0  9995
2 45712  53.0541  20.9784 0002558 168.2476 191.8574 15.08064323283003
STARLINK-1465           
1 45731U 20038B   25195.46334279 -.00000174  00000+0  71801-5 0  9997
2 45731  53.0536 226.0590 0001149  88.7380 271.3741 15.06392726280283
STARLINK-1471           
1 45735U 20038F   25196.21656148  .00008476  00000+0  25191-3 0  9998
2 45735  53.0520 186.9726 0001628 105.3558 254.7623 15.35611384282024
STARLINK-1474           
1 45738U 20038J   25196.19158824  .00027371  00000+0  42044-3 0  9997
2 45738  53.0416 161.1442 0001269 352.2157   7.8833 15.54085442282380
STARLINK-1475           
1 45739U 20038K   25195.52865269  .00088941  00000+0  19611-2 0  9995
2 45739  53.0587 129.0139 0006327  44.2501 315.9009 15.43166928282629
STARLINK-1480           
1 45741U 20038M   25196.24107656  .00000512  00000+0  53241-4 0  9994
2 45741  53.0543 222.5687 0001168  89.1951 270.9172 15.06401634281520
STARLINK-1481           
1 45742U 20038N   25196.58334491  .00197460  00000+0  81986-3 0  9996
2 45742  53.0392 148.9525 0008531  13.3362 290.0564 15.84656557282588
STARLINK-1500           
1 45744U 20038Q   25196.22154673  .00007133  00000+0  31413-3 0  9998
2 45744  53.0372 215.6288 0000355 324.5677  35.5295 15.22888725281429
STARLINK-1504           
1 45746U 20038S   25195.26624947  .00033023  00000+0  11196-2 0  9991
2 45746  53.0303 192.0517 0000580  63.6863 296.4196 15.30270805280741
STARLINK-1506           
1 45747U 20038T   25196.05137474  .00004934  00000+0  25808-3 0  9999
2 45747  53.0515 214.5727 0002273 288.1138  71.9608 15.17562114281422
STARLINK-1464           
1 45751U 20038X   25196.30926936 -.00000845  00000+0 -37844-4 0  9994
2 45751  53.0534 202.2602 0000986  72.8030 287.3067 15.06390186281813
STARLINK-1476           
1 45753U 20038Z   25196.58334491  .00018887  00000+0  13188-3 0  9992
2 45753  53.0262 135.3646 0006538  77.9453   7.4619 15.74359736282772
STARLINK-1477           
1 45754U 20038AA  25196.39035454  .00000691  00000+0  65271-4 0  9994
2 45754  53.0538 201.8967 0001363  89.4511 270.6635 15.06392832281677
STARLINK-1478           
1 45755U 20038AB  25196.34244143  .00000174  00000+0  30539-4 0  9992
2 45755  53.0543 202.1139 0001020  77.5400 282.5703 15.06393481281819
STARLINK-1484           
1 45756U 20038AC  25196.15262254  .00064059  00000+0  13810-2 0  9998
2 45756  53.0208 143.4778 0002431  47.3301 312.7908 15.43999693282627
STARLINK-1487           
1 45758U 20038AE  25195.91668981  .00161838  00000+0  62694-3 0  9998
2 45758  53.0182  20.0012 0001032 316.8420  50.5995 15.86242569284325
STARLINK-1493           
1 45759U 20038AF  25196.33138590 -.00000776  00000+0 -33251-4 0  9997
2 45759  53.0541 202.1637 0001055  77.3730 282.7376 15.06392094281622
STARLINK-1494           
1 45760U 20038AG  25196.20238416  .00001363  00000+0  11039-3 0  9993
2 45760  53.0542 202.7421 0001059  77.0121 283.0986 15.06401363281606
STARLINK-1502           
1 45764U 20038AL  25196.23185828 -.00000149  00000+0  89176-5 0  9999
2 45764  53.0538 202.6072 0001302  88.8170 271.2968 15.06393865281618
STARLINK-1470           
1 45772U 20038AU  25196.37212862  .00024667  00000+0  14772-2 0  9999
2 45772  53.0513 180.2576 0005072 336.5955  23.4805 15.10879130282125
STARLINK-1482           
1 45773U 20038AV  25196.26318398 -.00000433  00000+0 -10204-4 0  9994
2 45773  53.0538 182.4675 0001292  83.5416 276.5720 15.06399906281936
STARLINK-1485           
1 45774U 20038AW  25195.62907571  .00022023  00000+0  33946-3 0  9995
2 45774  53.0564 165.4491 0007660  17.1999 342.9269 15.54098449281158
STARLINK-1491           
1 45778U 20038BA  25196.58334491  .00251302  00000+0  84392-3 0  9995
2 45778  53.0291  93.1719 0003943  63.7144 181.6529 15.88893130283356
STARLINK-1496           
1 45780U 20038BC  25196.36270740  .00000091  00000+0  24998-4 0  9994
2 45780  53.0541 182.0218 0000935  80.9720 279.1375 15.06395896281905
STARLINK-1497           
1 45781U 20038BD  25196.16405564  .00070743  00000+0  21506-2 0  9998
2 45781  53.0467 155.2949 0002563 271.5552  88.5155 15.33419182282270
